{"_default": { "268": {"norad_id": "52761", "name": "ION SCV-006", "tle1": "1 52761U 22057AF  26164.15014859  .00013315  00000-0  28069-3 0  9990", "tle2": "2 52761  97.6088 312.5788 0018295 127.3382 232.9537 15.45194801225497", "object_type": "PAYLOAD", "criticality_score": 7.0, "last_updated": "2026-06-13T17:29:25.184973+00:00", "maneuver_count": 0, "owner": "N/A"}, "275": {"norad_id": "52763", "name": "SHERPA-AC1", "tle1": "1 52763U 22057AH  26164.15875062  .00007064  00000-0  20242-3 0  9992", "tle2": "2 52763  97.6674 313.2175 0008947 105.5679 254.6552 15.36210150225087", "object_type": "PAYLOAD", "criticality_score": 7.0, "last_updated": "2026-06-13T17:29:25.184973+00:00", "maneuver_count": 0, "owner": "N/A"}, "279": {"norad_id": "52771", "name": "OMNI-L2", "tle1": "1 52771U 22057AR  26164.13727041  .00001281  00000-0  17002-3 0  9997", "tle2": "2 52771  97.4716 226.7678 0006148 351.6544   8.4566 14.81360857219793", "object_type": "PAYLOAD", "criticality_score": 7.0, "last_updated": "2026-06-13T17:29:25.184973+00:00", "maneuver_count": 0, "owner": "N/A"}, "280": {"norad_id": "52422", "name": "BRO-6", "tle1": "1 52422U 22047AE  26164.26531211  .00034168  00000-0  60297-3 0  9999", "tle2": "2 52422  97.3404 255.2456 0005359  91.8857 268.3009 15.50298191230546", "object_type": "PAYLOAD", "criticality_score": 7.0, "last_updated": "2026-06-13T17:29:25.184973+00:00", "maneuver_count": 0, "owner": "N/A"}, "296": {"norad_id": "52897", "name": "STEP CUBE LAB-II", "tle1": "1 52897U 22065D   26164.30668354  .00000759  00000-0  15631-3 0  9990", "tle2": "2 52897  98.2216 308.2202 0009556  43.6696 316.5261 14.63297893210938", "object_type": "PAYLOAD", "criticality_score": 7.0, "last_updated": "2026-06-13T17:29:25.184973+00:00", "maneuver_count": 0, "owner": "N/A"}, "297": {"norad_id": "52898", "name": "RANDEV", "tle1": "1 52898U 22065E   26164.24042458  .00000834  00000-0  16938-3 0  9990", "tle2": "2 52898  98.2202 308.5043 0008900  44.5565 315.6351 14.63684991210677", "object_type": "PAYLOAD", "criticality_score": 7.0, "last_updated": "2026-06-13T17:29:25.184973+00:00", "maneuver_count": 0, "owner": "N/A"}, "298": {"norad_id": "52899", "name": "SNUGLITE-II", "tle1": "1 52899U 22065F   26164.27286261  .00000876  00000-0  17495-3 0  9991", "tle2": "2 52899  98.2196 309.1104 0008240  44.1957 315.9902 14.64341124210420", "object_type": "PAYLOAD", "criticality_score": 7.0, "last_updated": "2026-06-13T17:29:25.184973+00:00", "maneuver_count": 0, "owner": "N/A"}, "301": {"norad_id": "52900", "name": "MIMAN", "tle1": "1 52900U 22065G   26164.28368415  .00000469  00000-0  10336-3 0  9992", "tle2": "2 52900  98.2255 306.7858 0008447  45.9044 314.2851 14.61840061209876", "object_type": "PAYLOAD", "criticality_score": 7.0, "last_updated": "2026-06-13T17:29:25.184973+00:00", "maneuver_count": 0, "owner": "N/A"}, "308": {"norad_id": "53109", "name": "AVUM R/B", "tle1": "1 53109U 22080E   26152.46502029 -.00000003  00000-0  00000-0 0  9998", "tle2": "2 53109  70.1435 303.7143 0008869 293.3663  66.6064  6.42583280 91055", "object_type": "ROCKET_BODY", "criticality_score": 3.0, "last_updated": "2026-06-13T17:29:25.184973+00:00", "maneuver_count": 0, "owner": "N/A"}, "313": {"norad_id": "53105", "name": "LARES-2", "tle1": "1 53105U 22080A   26162.37796582 -.00000014  00000-0  00000+0 0  9995", "tle2": "2 53105  70.1631 307.3215 0005423 335.1501  24.8749  6.38965132 91295", "object_type": "PAYLOAD", "criticality_score": 7.0, "last_updated": "2026-06-13T17:29:25.184973+00:00", "maneuver_count": 0, "owner": "N/A"}, "314": {"norad_id": "52760", "name": "VIGORIDE 3", "tle1": "1 52760U 22057AE  26164.28557068  .00005635  00000-0  21378-3 0  9999", "tle2": "2 52760  97.6595 304.1565 0009427 132.2792 227.9247 15.27241225224568", "object_type": "PAYLOAD", "criticality_score": 7.0, "last_updated": "2026-06-13T17:29:25.184973+00:00", "maneuver_count": 0, "owner": "N/A"}, "325": {"norad_id": "52157", "name": "OMNI-L1", "tle1": "1 52157U 22033A   26164.19732088  .00001839  00000-0  23415-3 0  9996", "tle2": "2 52157  97.8396 243.4520 0003943 306.0062  54.0785 14.82735278226860", "object_type": "PAYLOAD", "criticality_score": 7.0, "last_updated": "2026-06-13T17:29:25.184973+00:00", "maneuver_count": 0, "owner": "N/A"}, "329": {"norad_id": "53204", "name": "STARLINK-4410", "tle1": "1 53204U 22084R   26164.33335648  .00001011  00000-0  37949-4 0  9993", "tle2": "2 53204  97.6011 225.3323 0001529  79.2623 163.2407 15.29638601  5779", "object_type": "PAYLOAD", "criticality_score": 8.0, "last_updated": "2026-06-13T17:29:25.184973+00:00", "maneuver_count": 0, "owner": "N/A"}, "332": {"norad_id": "53043", "name": "STARLINK-4362", "tle1": "1 53043U 22077A   26164.07875236 -.00000496  00000-0 -30372-4 0  9990", "tle2": "2 53043  97.3681 343.2133 0001789  80.9581 279.1849 15.05647704215261", "object_type": "PAYLOAD", "criticality_score": 8.0, "last_updated": "2026-06-13T17:29:25.184973+00:00", "maneuver_count": 0, "owner": "N/A"}, "338": {"norad_id": "51827", "name": "OBJECT D", "tle1": "1 51827U 22019D   26164.30120337  .00082566  00000-0  66844-3 0  9993", "tle2": "2 51827  97.3673 256.5750 0005537 154.9663 205.1869 15.70524091239092", "object_type": "PAYLOAD", "criticality_score": 7.0, "last_updated": "2026-06-13T17:29:25.184973+00:00", "maneuver_count": 0, "owner": "N/A"}, "402": {"norad_id": "52085", "name": "CZ-4C R/B", "tle1": "1 52085U 22027B   26164.13442186 -.00000063  00000-0  32943-4 0  9996", "tle2": "2 52085  63.3943  69.7131 0232208  22.6430 338.4652 13.65479866211483", "object_type": "ROCKET_BODY", "criticality_score": 3.0, "last_updated": "2026-06-13T17:29:25.184973+00:00", "maneuver_count": 0, "owner": "N/A"}, "415": {"norad_id": "51284", "name": "LT-1 01A", "tle1": "1 51284U 22007A   26164.28197551  .00000568  00000-0  67119-4 0  9995", "tle2": "2 51284  97.8098 171.7574 0001613  90.5757 269.5644 14.88417670237890", "object_type": "PAYLOAD", "criticality_score": 7.0, "last_updated": "2026-06-13T17:29:25.184973+00:00", "maneuver_count": 0, "owner": "N/A"}, "426": {"norad_id": "52161", "name": "ARCSAT-1", "tle1": "1 52161U 22033E   26164.19652312  .00012779  00000-0  20248-3 0  9998", "tle2": "2 52161  97.2756 256.4102 0004525 194.6782 165.4341 15.53532969235086", "object_type": "PAYLOAD", "criticality_score": 7.0, "last_updated": "2026-06-13T17:29:25.184973+00:00", "maneuver_count": 0, "owner": "N/A"}, "430": {"norad_id": "51832", "name": "OBJECT J", "tle1": "1 51832U 22019J   26164.32357331  .00003241  00000-0  15165-3 0  9990", "tle2": "2 51832  97.3435 227.2338 0007150 237.4653 122.5893 15.20425085237219", "object_type": "PAYLOAD", "criticality_score": 7.0, "last_updated": "2026-06-13T17:29:25.184973+00:00", "maneuver_count": 0, "owner": "N/A"}, "439": {"norad_id": "52196", "name": "GLOBAL-18", "tle1": "1 52196U 22034B   26163.60097664  .00027215  00000-0  55386-3 0  9997", "tle2": "2 52196  52.9823 278.5554 0003129 254.9312 105.1347 15.46094930236251", "object_type": "PAYLOAD", "criticality_score": 7.0, "last_updated": "2026-06-13T17:29:25.184973+00:00", "maneuver_count": 0, "owner": "N/A"}, "441": {"norad_id": "53346", "name": "OBJECT A", "tle1": "1 53346U 22090A   26164.27847396  .00003801  00000-0  17254-3 0  9993", "tle2": "2 53346  97.3145 232.4976 0003035 187.7401 172.3789 15.21381532214212", "object_type": "PAYLOAD", "criticality_score": 7.0, "last_updated": "2026-06-13T17:29:25.184973+00:00", "maneuver_count": 0, "owner": "N/A"}, "456": {"norad_id": "52445", "name": "JILIN-01 GAOFEN 3D 28", "tle1": "1 52445U 22048C   26164.28605682  .00137325  00000-0  82369-3 0  9994", "tle2": "2 52445  97.5646 278.0042 0000868 156.8171 203.3133 15.77391247228916", "object_type": "PAYLOAD", "criticality_score": 7.0, "last_updated": "2026-06-13T17:29:25.184973+00:00", "maneuver_count": 0, "owner": "N/A"}, "457": {"norad_id": "52444", "name": "JILIN-01 GAOFEN 3D 27", "tle1": "1 52444U 22048B   26164.27935767  .00114997  00000-0  78505-3 0  9999", "tle2": "2 52444  97.5707 277.8627 0001374  62.0194 298.1209 15.74482045228869", "object_type": "PAYLOAD", "criticality_score": 7.0, "last_updated": "2026-06-13T17:29:25.184973+00:00", "maneuver_count": 0, "owner": "N/A"}, "483": {"norad_id": "52159", "name": "ENMAP", "tle1": "1 52159U 22033C   26164.29870156 -.00000026  00000-0  36151-5 0  9999", "tle2": "2 52159  97.9794 246.6035 0001384  84.1109 276.0258 14.74983492226083", "object_type": "PAYLOAD", "criticality_score": 7.0, "last_updated": "2026-06-13T17:29:25.184973+00:00", "maneuver_count": 0, "owner": "N/A"}, "484": {"norad_id": "51951", "name": "OBJECT F", "tle1": "1 51951U 22023F   26164.25778800  .00013628  00000-0  54386-3 0  9995", "tle2": "2 51951  63.4454 286.8390 0129527 342.5641  17.1042 15.17988461237115", "object_type": "PAYLOAD", "criticality_score": 7.0, "last_updated": "2026-06-13T17:29:25.184973+00:00", "maneuver_count": 0, "owner": "N/A"}, "501": {"norad_id": "51822", "name": "LT-1 01B", "tle1": "1 51822U 22018A   26164.31557666  .00000599  00000-0  70460-4 0  9993", "tle2": "2 51822  97.8102 171.7868 0001589  91.6790 268.4609 14.88413875233136", "object_type": "PAYLOAD", "criticality_score": 7.0, "last_updated": "2026-06-13T17:29:25.184973+00:00", "maneuver_count": 0, "owner": "N/A"}, "513": {"norad_id": "52257", "name": "DAQI 1", "tle1": "1 52257U 22039A   26164.30135743  .00000523  00000-0  12446-3 0  9992", "tle2": "2 52257  98.1478 103.2335 0002277 274.1859  85.9080 14.57676356221376", "object_type": "PAYLOAD", "criticality_score": 7.0, "last_updated": "2026-06-13T17:29:25.184973+00:00", "maneuver_count": 0, "owner": "N/A"}, "569": {"norad_id": "53323", "name": "COSMOS 2558", "tle1": "1 53323U 22089A   26163.82535470  .00108613  00000-0  74789-3 0  9996", "tle2": "2 53323  97.2259 267.7142 0000767 225.4822 134.6380 15.74302000217148", "object_type": "PAYLOAD", "criticality_score": 7.0, "last_updated": "2026-06-13T17:29:25.184973+00:00", "maneuver_count": 0, "owner": "N/A"}, "577": {"norad_id": "52200", "name": "GAOFEN 3 03", "tle1": "1 52200U 22035A   26164.27512481  .00000162  00000-0  62438-4 0  9996", "tle2": "2 52200  98.4062 172.9121 0001205  99.5270 260.6056 14.42215112220285", "object_type": "PAYLOAD", "criticality_score": 7.0, "last_updated": "2026-06-13T17:29:25.184973+00:00", "maneuver_count": 0, "owner": "N/A"}, "662": {"norad_id": "52145", "name": "MERIDIAN 10", "tle1": "1 52145U 22030A   26163.98247039  .00000221  00000-0  00000-0 0  9999", "tle2": "2 52145  62.6764 141.2538 6782592 272.8566  17.6612  2.00614112 30945", "object_type": "PAYLOAD", "criticality_score": 7.0, "last_updated": "2026-06-13T17:29:25.184973+00:00", "maneuver_count": 0, "owner": "N/A"}}}