OBJECT_NAME,OBJECT_ID,EPOCH,MEAN_MOTION,ECCENTRICITY,INCLINATION,RA_OF_ASC_NODE,ARG_OF_PERICENTER,MEAN_ANOMALY,EPHEMERIS_TYPE,CLASSIFICATION_TYPE,NORAD_CAT_ID,ELEMENT_SET_NO,REV_AT_EPOCH,BSTAR,MEAN_MOTION_DOT,MEAN_MOTION_DDOT
LUDI TANCE 1-01A (L-SAR 01A),2022-007A,2026-06-13T06:46:02.684064,14.88417670,.00016133,97.8098,171.7574,90.5757,269.5644,0,U,51284,999,23789,.67118941E-4,.568E-5,0
LUDI TANCE 1-01B (L-SAR 01B),2022-018A,2026-06-13T07:34:25.823424,14.88413875,.00015889,97.8102,171.7868,91.6790,268.4609,0,U,51822,999,23313,.70459814E-4,.599E-5,0
2022-019D,2022-019D,2026-06-13T07:13:43.971168,15.70524091,.00055373,97.3673,256.5750,154.9663,205.1869,0,U,51827,999,23909,.66844208E-3,.82566E-3,0
2022-019J,2022-019J,2026-06-13T07:45:56.733984,15.20425085,.00071503,97.3435,227.2338,237.4653,122.5893,0,U,51832,999,23721,.15164695E-3,.3241E-4,0
2022-023F,2022-023F,2026-06-13T06:11:12.883200,15.17988461,.01295265,63.4454,286.8390,342.5641,17.1042,0,U,51951,999,23711,.54386024E-3,.13628E-3,0
CZ-4C R/B,2022-027B,2026-06-13T03:13:34.048704,13.65479866,.02322076,63.3943,69.7131,22.6430,338.4652,0,U,52085,999,21148,.32943068E-4,-.63E-6,0
MERIDIAN 10,2022-030A,2026-06-12T23:34:45.441696,2.00614112,.67825916,62.6764,141.2538,272.8566,17.6612,0,U,52145,999,3094,0,.221E-5,0
OMNI-L1,2022-033A,2026-06-13T04:44:08.524032,14.82735278,.00039433,97.8396,243.4520,306.0062,54.0785,0,U,52157,999,22686,.23414951E-3,.1839E-4,0
ENMAP,2022-033C,2026-06-13T07:10:07.814784,14.74983492,.00013842,97.9794,246.6035,84.1109,276.0258,0,U,52159,999,22608,.3615052E-5,-.26E-6,0
ARCSAT-1,2022-033E,2026-06-13T04:42:59.597568,15.53532969,.00045252,97.2756,256.4102,194.6782,165.4341,0,U,52161,999,23508,.20247645E-3,.12779E-3,0
GLOBAL-18,2022-034B,2026-06-12T14:25:24.381696,15.46094930,.00031286,52.9823,278.5554,254.9312,105.1347,0,U,52196,999,23625,.55385931E-3,.27215E-3,0
GAOFEN-3 03,2022-035A,2026-06-13T06:36:10.783584,14.42215112,.00012053,98.4062,172.9121,99.5270,260.6056,0,U,52200,999,22028,.62438056E-4,.162E-5,0
DAQI-1,2022-039A,2026-06-13T07:13:57.281952,14.57676356,.00022766,98.1478,103.2335,274.1859,85.9080,0,U,52257,999,22137,.124464E-3,.523E-5,0
BRO-6,2022-047AE,2026-06-13T06:22:02.966304,15.50298191,.00053589,97.3404,255.2456,91.8857,268.3009,0,U,52422,999,23054,.60296643E-3,.34168E-3,0
JILIN-1 GAOFEN 3D27,2022-048B,2026-06-13T06:42:16.502688,15.74482045,.00013739,97.5707,277.8627,62.0194,298.1209,0,U,52444,999,22886,.78505417E-3,.114997E-2,0
JILIN-1 GAOFEN 3D28,2022-048C,2026-06-13T06:51:55.309248,15.77391247,.00008683,97.5646,278.0042,156.8171,203.3133,0,U,52445,999,22891,.82369079E-3,.137325E-2,0
VIGORIDE-3,2022-057AE,2026-06-13T06:51:13.306752,15.27241225,.00094268,97.6595,304.1565,132.2792,227.9247,0,U,52760,999,22456,.21378165E-3,.5635E-4,0
ION SCV-006,2022-057AF,2026-06-13T03:36:12.838176,15.45194801,.00182948,97.6088,312.5788,127.3382,232.9537,0,U,52761,999,22549,.28068608E-3,.13315E-3,0
SHERPA-AC1,2022-057AH,2026-06-13T03:48:36.053568,15.36210150,.00089467,97.6674,313.2175,105.5679,254.6552,0,U,52763,999,22508,.20241856E-3,.7064E-4,0
OMNI-L2,2022-057AR,2026-06-13T03:17:40.163424,14.81360857,.00061475,97.4716,226.7678,351.6544,8.4566,0,U,52771,999,21979,.17002428E-3,.1281E-4,0
STEP CUBE LAB-II,2022-065D,2026-06-13T07:21:37.457856,14.63297893,.00095562,98.2216,308.2202,43.6696,316.5261,0,U,52897,999,21093,.15631119E-3,.759E-5,0
RANDEV,2022-065E,2026-06-13T05:46:12.683712,14.63684991,.00089001,98.2202,308.5043,44.5565,315.6351,0,U,52898,999,21067,.16938319E-3,.834E-5,0
SNUGLITE-II,2022-065F,2026-06-13T06:32:55.329504,14.64341124,.00082399,98.2196,309.1104,44.1957,315.9902,0,U,52899,999,21042,.17494541E-3,.876E-5,0
MIMAN,2022-065G,2026-06-13T06:48:30.310560,14.61840061,.00084468,98.2255,306.7858,45.9044,314.2851,0,U,52900,999,20987,.10335549E-3,.469E-5,0
STARLINK-4362,2022-077A,2026-06-13T01:53:24.203904,15.05647704,.00017891,97.3681,343.2133,80.9581,279.1849,0,U,53043,999,21526,-.30371907E-4,-.496E-5,0
LARES-2,2022-080A,2026-06-11T09:04:16.246848,6.38965132,.0005423,70.1631,307.3215,335.1501,24.8749,0,U,53105,999,9129,0,-.14E-6,0
GREENCUBE (IO-117),2022-080E,2026-06-01T11:09:37.753056,6.42583280,.00088692,70.1435,303.7143,293.3663,66.6064,0,U,53109,999,9105,0,-.3E-7,0
STARLINK-4410,2022-084R,2026-06-13T08:00:01.999872,15.29638601,.00015286,97.6011,225.3323,79.2623,163.2407,0,U,53204,999,577,.37948663E-4,.1011E-4,0
COSMOS 2558,2022-089A,2026-06-12T19:48:30.646080,15.74302000,.0000767,97.2259,267.7142,225.4822,134.6380,0,U,53323,999,21714,.74789E-3,.108613E-2,0
TECMS,2022-090A,2026-06-13T06:41:00.150144,15.21381532,.00030353,97.3145,232.4976,187.7401,172.3789,0,U,53346,999,21421,.17253679E-3,.3801E-4,0
